{
    "links": {
        "self": "http://www.neowsapp.com/rest/v1/neo/54054705?api_key=iIulBulltgU6a56xZRHN4H3l9WmuAYTsLGpBGhQ2"
    },
    "id": "54054705",
    "neo_reference_id": "54054705",
    "name": "(2020 SJ6)",
    "designation": "2020 SJ6",
    "nasa_jpl_url": "http://ssd.jpl.nasa.gov/sbdb.cgi?sstr=54054705",
    "absolute_magnitude_h": 24.797,
    "estimated_diameter": {
        "kilometers": {
            "estimated_diameter_min": 0.0291846827,
            "estimated_diameter_max": 0.0652589345
        },
        "meters": {
            "estimated_diameter_min": 29.1846827434,
            "estimated_diameter_max": 65.258934516
        },
        "miles": {
            "estimated_diameter_min": 0.0181345155,
            "estimated_diameter_max": 0.0405500094
        },
        "feet": {
            "estimated_diameter_min": 95.7502745319,
            "estimated_diameter_max": 214.1041227175
        }
    },
    "is_potentially_hazardous_asteroid": false,
    "close_approach_data": [
        {
            "close_approach_date": "2020-09-27",
            "close_approach_date_full": "2020-Sep-27 09:15",
            "epoch_date_close_approach": 1601198100000,
            "relative_velocity": {
                "kilometers_per_second": "13.0580561852",
                "kilometers_per_hour": "47009.0022665501",
                "miles_per_hour": "29209.5658805683"
            },
            "miss_distance": {
                "astronomical": "0.0505761719",
                "lunar": "19.6741308691",
                "kilometers": "7566087.588993853",
                "miles": "4701348.8233590514"
            },
            "orbiting_body": "Earth"
        },
        {
            "close_approach_date": "2086-09-06",
            "close_approach_date_full": "2086-Sep-06 00:59",
            "epoch_date_close_approach": 3682112340000,
            "relative_velocity": {
                "kilometers_per_second": "18.1621501504",
                "kilometers_per_hour": "65383.7405415296",
                "miles_per_hour": "40626.9136714855"
            },
            "miss_distance": {
                "astronomical": "0.3882655411",
                "lunar": "151.0352954879",
                "kilometers": "58083697.942957457",
                "miles": "36091536.3149766266"
            },
            "orbiting_body": "Earth"
        }
    ],
    "orbital_data": {
        "orbit_id": "1",
        "orbit_determination_date": "2020-09-28 07:42:09",
        "first_observation_date": "2020-09-26",
        "last_observation_date": "2020-09-28",
        "data_arc_in_days": 2,
        "observations_used": 14,
        "orbit_uncertainty": "9",
        "minimum_orbit_intersection": ".0279946",
        "jupiter_tisserand_invariant": "4.356",
        "epoch_osculation": "2459119.5",
        "eccentricity": ".3286483649916835",
        "semi_major_axis": "1.526593417947669",
        "inclination": "22.19117820770803",
        "ascending_node_longitude": "6.832441900300823",
        "orbital_period": "688.9433384339173",
        "perihelion_distance": "1.024880987132102",
        "perihelion_argument": "11.03519647174075",
        "aphelion_distance": "2.028305848763236",
        "perihelion_time": "2459129.983339482264",
        "mean_anomaly": "354.5220426658105",
        "mean_motion": ".5225393438281003",
        "equinox": "J2000",
        "orbit_class": {
            "orbit_class_type": "AMO",
            "orbit_class_description": "Near-Earth asteroid orbits similar to that of 1221 Amor",
            "orbit_class_range": "1.017 AU < q (perihelion) < 1.3 AU"
        }
    },
    "is_sentry_object": false
}